{
  "norad_id": 62108,
  "name": "STARLINK-33553",
  "history": [
    {
      "epoch": "2026-03-28T17:34:06.286080",
      "apogee_km": 484.4291910128004,
      "perigee_km": 481.5875790401378,
      "latitude_deg": 3.3685678181726146,
      "longitude_deg": 101.07365119992755,
      "semi_major_axis_km": 6861.145385026469,
      "eccentricity": 0.00020708,
      "inclination_deg": 43.0036,
      "raan_deg": 97.9896,
      "arg_perigee_deg": 270.3363,
      "mean_anomaly_deg": 89.7252,
      "mean_motion_rev_day": 15.27593596
    },
    {
      "epoch": "2026-03-29T01:24:53.824320",
      "apogee_km": 483.1239230081728,
      "perigee_km": 482.8385004905649,
      "latitude_deg": -35.56191410591348,
      "longitude_deg": 132.4598048001062,
      "semi_major_axis_km": 6861.118211749369,
      "eccentricity": 2.08e-05,
      "inclination_deg": 43.0012,
      "raan_deg": 96.1425,
      "arg_perigee_deg": 17.3014,
      "mean_anomaly_deg": 342.7845,
      "mean_motion_rev_day": 15.27602671
    }
  ]
}